{
 "generated_at": "2026-07-10T08:23:00Z",
 "sources": [
  {
   "name": "CelesTrak",
   "url": "https://celestrak.org/NORAD/elements/",
   "license": "frei verfügbar; Attribution. Ursprünglich USSPACECOM/Space-Track."
  },
  {
   "name": "GCAT (J. McDowell, planet4589.org)",
   "url": "https://planet4589.org/space/gcat/",
   "license": "CC-BY 4.0"
  }
 ],
 "satellites": [
  {
   "norad": 69177,
   "name": "STRIX-7",
   "intl": "2026-112A",
   "group": "sar",
   "gcat": {
    "class": "B",
    "category": "IMG-R",
    "owner": "SYNSP",
    "state": "J"
   },
   "omm": {
    "OBJECT_NAME": "STRIX-7",
    "OBJECT_ID": "2026-112A",
    "EPOCH": "2026-07-09T19:01:55.860096",
    "MEAN_MOTION": 15.01583516,
    "ECCENTRICITY": 0.0024086,
    "INCLINATION": 44.9077,
    "RA_OF_ASC_NODE": 73.707,
    "ARG_OF_PERICENTER": 177.965,
    "MEAN_ANOMALY": 182.1324,
    "EPHEMERIS_TYPE": 0,
    "CLASSIFICATION_TYPE": "U",
    "NORAD_CAT_ID": 69177,
    "ELEMENT_SET_NO": 999,
    "REV_AT_EPOCH": 727,
    "BSTAR": 0.00021162,
    "MEAN_MOTION_DOT": 0.00002568,
    "MEAN_MOTION_DDOT": 0
   }
  },
  {
   "norad": 69701,
   "name": "STRIX-8",
   "intl": "2026-146A",
   "group": "sar",
   "gcat": {
    "class": "B",
    "category": "IMG-R",
    "owner": "SYNSP",
    "state": "J"
   },
   "omm": {
    "OBJECT_NAME": "STRIX-8",
    "OBJECT_ID": "2026-146A",
    "EPOCH": "2026-07-09T18:35:48.659136",
    "MEAN_MOTION": 15.0440522,
    "ECCENTRICITY": 0.0008047,
    "INCLINATION": 41.9901,
    "RA_OF_ASC_NODE": 43.1189,
    "ARG_OF_PERICENTER": 346.6171,
    "MEAN_ANOMALY": 13.4442,
    "EPHEMERIS_TYPE": 0,
    "CLASSIFICATION_TYPE": "U",
    "NORAD_CAT_ID": 69701,
    "ELEMENT_SET_NO": 999,
    "REV_AT_EPOCH": 196,
    "BSTAR": 0.0002271,
    "MEAN_MOTION_DOT": 0.00003037,
    "MEAN_MOTION_DDOT": 0
   }
  },
  {
   "norad": 37849,
   "name": "SUOMI NPP",
   "intl": "2011-061A",
   "group": "weather",
   "gcat": {
    "class": "C",
    "category": "MET",
    "owner": "GSFC/NOAA",
    "state": "US"
   },
   "omm": {
    "OBJECT_NAME": "SUOMI NPP",
    "OBJECT_ID": "2011-061A",
    "EPOCH": "2026-07-09T19:48:48.701952",
    "MEAN_MOTION": 14.19521962,
    "ECCENTRICITY": 0.0000578,
    "INCLINATION": 98.7956,
    "RA_OF_ASC_NODE": 131.5475,
    "ARG_OF_PERICENTER": 252.82,
    "MEAN_ANOMALY": 107.2913,
    "EPHEMERIS_TYPE": 0,
    "CLASSIFICATION_TYPE": "U",
    "NORAD_CAT_ID": 37849,
    "ELEMENT_SET_NO": 999,
    "REV_AT_EPOCH": 76165,
    "BSTAR": 0.000035072,
    "MEAN_MOTION_DOT": 3e-7,
    "MEAN_MOTION_DDOT": 0
   }
  },
  {
   "norad": 54754,
   "name": "SWOT",
   "intl": "2022-173A",
   "group": "resource",
   "gcat": {
    "class": "C",
    "category": "EOSCI",
    "owner": "CNES/JPL",
    "state": "F"
   },
   "omm": {
    "OBJECT_NAME": "SWOT",
    "OBJECT_ID": "2022-173A",
    "EPOCH": "2026-07-09T18:46:17.929344",
    "MEAN_MOTION": 14.00171984,
    "ECCENTRICITY": 0.0000296,
    "INCLINATION": 77.6105,
    "RA_OF_ASC_NODE": 4.8057,
    "ARG_OF_PERICENTER": 75.0538,
    "MEAN_ANOMALY": 285.0646,
    "EPHEMERIS_TYPE": 0,
    "CLASSIFICATION_TYPE": "U",
    "NORAD_CAT_ID": 54754,
    "ELEMENT_SET_NO": 999,
    "REV_AT_EPOCH": 18231,
    "BSTAR": 0.000012431,
    "MEAN_MOTION_DOT": 1.6e-7,
    "MEAN_MOTION_DDOT": 0
   }
  },
  {
   "norad": 36605,
   "name": "TANDEM-X",
   "intl": "2010-030A",
   "group": "resource",
   "gcat": {
    "class": null,
    "category": "IMG-R",
    "owner": "DLR2/EASF",
    "state": "D"
   },
   "omm": {
    "OBJECT_NAME": "TANDEM-X",
    "OBJECT_ID": "2010-030A",
    "EPOCH": "2026-07-07T11:29:58.986816",
    "MEAN_MOTION": 15.19154052,
    "ECCENTRICITY": 0.0001887,
    "INCLINATION": 97.4457,
    "RA_OF_ASC_NODE": 195.8973,
    "ARG_OF_PERICENTER": 94.3019,
    "MEAN_ANOMALY": 265.8431,
    "EPHEMERIS_TYPE": 0,
    "CLASSIFICATION_TYPE": "U",
    "NORAD_CAT_ID": 36605,
    "ELEMENT_SET_NO": 999,
    "REV_AT_EPOCH": 88972,
    "BSTAR": 0.000021566,
    "MEAN_MOTION_DOT": 0.00000386,
    "MEAN_MOTION_DDOT": 0
   }
  },
  {
   "norad": 25397,
   "name": "TECHSAT 1B (GO-32)",
   "intl": "1998-043D",
   "group": "resource",
   "gcat": {
    "class": "A",
    "category": "COM",
    "owner": "TECN",
    "state": "IL"
   },
   "omm": {
    "OBJECT_NAME": "TECHSAT 1B (GO-32)",
    "OBJECT_ID": "1998-043D",
    "EPOCH": "2026-07-09T16:22:56.830080",
    "MEAN_MOTION": 14.24432637,
    "ECCENTRICITY": 0.0002038,
    "INCLINATION": 99.008,
    "RA_OF_ASC_NODE": 184.0097,
    "ARG_OF_PERICENTER": 123.5145,
    "MEAN_ANOMALY": 236.6227,
    "EPHEMERIS_TYPE": 0,
    "CLASSIFICATION_TYPE": "U",
    "NORAD_CAT_ID": 25397,
    "ELEMENT_SET_NO": 999,
    "REV_AT_EPOCH": 45453,
    "BSTAR": 0.000034171,
    "MEAN_MOTION_DOT": 3.2e-7,
    "MEAN_MOTION_DDOT": 0
   }
  },
  {
   "norad": 25994,
   "name": "TERRA",
   "intl": "1999-068A",
   "group": "resource",
   "gcat": {
    "class": "C",
    "category": "IMG",
    "owner": "GSFC",
    "state": "US"
   },
   "omm": {
    "OBJECT_NAME": "TERRA",
    "OBJECT_ID": "1999-068A",
    "EPOCH": "2026-07-09T06:38:05.158176",
    "MEAN_MOTION": 14.61120751,
    "ECCENTRICITY": 0.0003146,
    "INCLINATION": 97.9444,
    "RA_OF_ASC_NODE": 238.9456,
    "ARG_OF_PERICENTER": 134.5499,
    "MEAN_ANOMALY": 298.5628,
    "EPHEMERIS_TYPE": 0,
    "CLASSIFICATION_TYPE": "U",
    "NORAD_CAT_ID": 25994,
    "ELEMENT_SET_NO": 999,
    "REV_AT_EPOCH": 41283,
    "BSTAR": 0.000062002995,
    "MEAN_MOTION_DOT": 0.00000261,
    "MEAN_MOTION_DDOT": 0
   }
  },
  {
   "norad": 31698,
   "name": "TERRASAR-X",
   "intl": "2007-026A",
   "group": "resource",
   "gcat": {
    "class": null,
    "category": "IMG-R",
    "owner": "DLR2/EASF",
    "state": "D"
   },
   "omm": {
    "OBJECT_NAME": "TERRASAR-X",
    "OBJECT_ID": "2007-026A",
    "EPOCH": "2026-07-07T11:29:59.023968",
    "MEAN_MOTION": 15.19153986,
    "ECCENTRICITY": 0.0001878,
    "INCLINATION": 97.4461,
    "RA_OF_ASC_NODE": 195.8972,
    "ARG_OF_PERICENTER": 86.954,
    "MEAN_ANOMALY": 273.1909,
    "EPHEMERIS_TYPE": 0,
    "CLASSIFICATION_TYPE": "U",
    "NORAD_CAT_ID": 31698,
    "ELEMENT_SET_NO": 999,
    "REV_AT_EPOCH": 5630,
    "BSTAR": 0.000014624,
    "MEAN_MOTION_DOT": 0.0000024,
    "MEAN_MOTION_DDOT": 0
   }
  },
  {
   "norad": 33396,
   "name": "THEOS",
   "intl": "2008-049A",
   "group": "resource",
   "gcat": {
    "class": "C",
    "category": "IMG",
    "owner": "GISTDA",
    "state": "T"
   },
   "omm": {
    "OBJECT_NAME": "THEOS",
    "OBJECT_ID": "2008-049A",
    "EPOCH": "2026-07-09T20:48:26.529408",
    "MEAN_MOTION": 14.20135272,
    "ECCENTRICITY": 0.0001115,
    "INCLINATION": 98.5559,
    "RA_OF_ASC_NODE": 247.4131,
    "ARG_OF_PERICENTER": 85.2702,
    "MEAN_ANOMALY": 274.8603,
    "EPHEMERIS_TYPE": 0,
    "CLASSIFICATION_TYPE": "U",
    "NORAD_CAT_ID": 33396,
    "ELEMENT_SET_NO": 999,
    "REV_AT_EPOCH": 92118,
    "BSTAR": -0.000061883,
    "MEAN_MOTION_DOT": -0.00000174,
    "MEAN_MOTION_DDOT": 0
   }
  },
  {
   "norad": 55973,
   "name": "TIANMU-1 03",
   "intl": "2023-039A",
   "group": "weather",
   "gcat": {
    "class": "B",
    "category": "MET",
    "owner": "TIANMU",
    "state": "CN"
   },
   "omm": {
    "OBJECT_NAME": "TIANMU-1 03",
    "OBJECT_ID": "2023-039A",
    "EPOCH": "2026-07-09T19:26:14.152992",
    "MEAN_MOTION": 15.47939272,
    "ECCENTRICITY": 0.0003033,
    "INCLINATION": 97.5243,
    "RA_OF_ASC_NODE": 5.6765,
    "ARG_OF_PERICENTER": 40.1608,
    "MEAN_ANOMALY": 319.9866,
    "EPHEMERIS_TYPE": 0,
    "CLASSIFICATION_TYPE": "U",
    "NORAD_CAT_ID": 55973,
    "ELEMENT_SET_NO": 999,
    "REV_AT_EPOCH": 18433,
    "BSTAR": 0.00021701,
    "MEAN_MOTION_DOT": 0.00011224,
    "MEAN_MOTION_DDOT": 0
   }
  }
 ]
}
